*******************************************************************************
Ephemeris / WWW_USER Mon Mar 10 08:26:17 2025 Pasadena, USA      / Horizons    
*******************************************************************************
Target body name: 300163 (2006 VW139)             {source: JPL#20}
Center body name: Earth (399)                     {source: DE441}
Center-site name: Mauna Kea
*******************************************************************************
Start time      : A.D. 2019-Jan-08 04:08:00.0000 UT      
Stop  time      : A.D. 2019-Jan-08 16:48:00.0000 UT      
Step-size       : 1 minutes
*******************************************************************************
Target pole/equ : undefined
Target radii    : undefined                                                    
Center geodetic : 204.5278, 19.8260847, 4.21024   {E-lon(deg),Lat(deg),Alt(km)}
Center cylindric: 204.5278, 6006.35451, 2151.0229 {E-lon(deg),Dxy(km),Dz(km)}
Center pole/equ : ITRF93                          {East-longitude positive}
Center radii    : 6378.137, 6378.137, 6356.752 km {Equator_a, b, pole_c}       
Target primary  : Sun
Vis. interferer : MOON (R_eq= 1737.400) km        {source: DE441}
Rel. light bend : Sun                             {source: DE441}
Rel. lght bnd GM: 1.3271E+11 km^3/s^2                                          
Small-body perts: Yes                             {source: SB441-N16}
Atmos refraction: NO (AIRLESS)
RA format       : HMS
Time format     : CAL 
Calendar mode   : Mixed Julian/Gregorian
RTS-only print  : NO       
EOP file        : eop.250307.p250603                                           
EOP coverage    : DATA-BASED 1962-JAN-20 TO 2025-MAR-07. PREDICTS-> 2025-JUN-02
Units conversion: 1 au= 149597870.700 km, c= 299792.458 km/s, 1 day= 86400.0 s 
Table cut-offs 1: Elevation (-90.0deg=NO ),Airmass (>38.000=NO), Daylight (YES)
Table cut-offs 2: Solar elongation (  0.0,180.0=NO ),Local Hour Angle( 0.0=NO )
Table cut-offs 3: RA/DEC angular rate (     0.0=NO )                           
*******************************************************************************
Initial IAU76/J2000 heliocentric ecliptic osculating elements (au, days, deg.):
  EPOCH=  2457991.5 ! 2017-Aug-26.00 (TDB)         Residual RMS= .24052        
   EC= .2010729135113919   QR= 2.43581750533798    TP= 2457700.5743979034      
   OM= 83.18687361565334   W=  281.0057800900049   IN= 3.240211778004737       
  Equivalent ICRF heliocentric cartesian coordinates (au, au/d):
   X= 5.132894709524352E-01  Y= 2.513143937276953E+00  Z= 1.078150377913554E+00
  VX=-1.001562838274837E-02 VY= 3.317467852193382E-03 VZ= 2.080280624827025E-03
Asteroid physical parameters (km, seconds, rotational period in hours):        
   GM= n.a.                RAD= n.a.               ROTPER= 3240.               
   H= 16.21                G= .150                 B-V= n.a.                   
                           ALBEDO= n.a.            STYP= n.a.                  
*******************************************************************************
 Date__(UT)__HR:MN     R.A._________(ICRF)_________DEC
******************************************************
$$SOE
 2019-Jan-08 08:14     11 50 45.285086 +04 59 22.99127
 2019-Jan-08 08:15     11 50 45.290160 +04 59 23.01041
 2019-Jan-08 08:16     11 50 45.295231 +04 59 23.02956
 2019-Jan-08 08:17     11 50 45.300298 +04 59 23.04872
 2019-Jan-08 08:18     11 50 45.305362 +04 59 23.06788
 2019-Jan-08 08:19     11 50 45.310421 +04 59 23.08704
 2019-Jan-08 08:20     11 50 45.315476 +04 59 23.10621
 2019-Jan-08 08:21     11 50 45.320528 +04 59 23.12538
 2019-Jan-08 08:22     11 50 45.325575 +04 59 23.14455
 2019-Jan-08 08:23     11 50 45.330619 +04 59 23.16373
 2019-Jan-08 08:24     11 50 45.335659 +04 59 23.18292
 2019-Jan-08 08:25     11 50 45.340695 +04 59 23.20210
 2019-Jan-08 08:26     11 50 45.345727 +04 59 23.22130
 2019-Jan-08 08:27     11 50 45.350755 +04 59 23.24049
 2019-Jan-08 08:28     11 50 45.355780 +04 59 23.25969
 2019-Jan-08 08:29     11 50 45.360800 +04 59 23.27890
 2019-Jan-08 08:30     11 50 45.365817 +04 59 23.29811
 2019-Jan-08 08:31     11 50 45.370829 +04 59 23.31732
 2019-Jan-08 08:32     11 50 45.375838 +04 59 23.33654
 2019-Jan-08 08:33     11 50 45.380843 +04 59 23.35576
 2019-Jan-08 08:34     11 50 45.385844 +04 59 23.37498
 2019-Jan-08 08:35     11 50 45.390841 +04 59 23.39421
 2019-Jan-08 08:36     11 50 45.395834 +04 59 23.41345
 2019-Jan-08 08:37     11 50 45.400823 +04 59 23.43268
 2019-Jan-08 08:38     11 50 45.405809 +04 59 23.45192
 2019-Jan-08 08:39     11 50 45.410790 +04 59 23.47117
 2019-Jan-08 08:40     11 50 45.415767 +04 59 23.49042
 2019-Jan-08 08:41     11 50 45.420741 +04 59 23.50967
 2019-Jan-08 08:42     11 50 45.425710 +04 59 23.52893
 2019-Jan-08 08:43     11 50 45.430676 +04 59 23.54819
 2019-Jan-08 08:44     11 50 45.435638 +04 59 23.56745
 2019-Jan-08 08:45  r  11 50 45.440596 +04 59 23.58672
 2019-Jan-08 08:46     11 50 45.445550 +04 59 23.60599
 2019-Jan-08 08:47     11 50 45.450500 +04 59 23.62527
 2019-Jan-08 08:48     11 50 45.455446 +04 59 23.64455
 2019-Jan-08 08:49     11 50 45.460388 +04 59 23.66383
 2019-Jan-08 08:50     11 50 45.465326 +04 59 23.68312
 2019-Jan-08 08:51     11 50 45.470260 +04 59 23.70241
 2019-Jan-08 08:52     11 50 45.475191 +04 59 23.72171
 2019-Jan-08 08:53     11 50 45.480117 +04 59 23.74100
 2019-Jan-08 08:54     11 50 45.485039 +04 59 23.76031
 2019-Jan-08 08:55     11 50 45.489958 +04 59 23.77961
 2019-Jan-08 08:56     11 50 45.494872 +04 59 23.79892
 2019-Jan-08 08:57     11 50 45.499783 +04 59 23.81823
 2019-Jan-08 08:58     11 50 45.504690 +04 59 23.83755
 2019-Jan-08 08:59     11 50 45.509593 +04 59 23.85687
 2019-Jan-08 09:00     11 50 45.514491 +04 59 23.87619
 2019-Jan-08 09:01     11 50 45.519386 +04 59 23.89552
 2019-Jan-08 09:02     11 50 45.524277 +04 59 23.91485
 2019-Jan-08 09:03     11 50 45.529164 +04 59 23.93418
 2019-Jan-08 09:04     11 50 45.534047 +04 59 23.95352
 2019-Jan-08 09:05     11 50 45.538927 +04 59 23.97286
 2019-Jan-08 09:06     11 50 45.543802 +04 59 23.99221
 2019-Jan-08 09:07     11 50 45.548673 +04 59 24.01155
 2019-Jan-08 09:08     11 50 45.553540 +04 59 24.03091
 2019-Jan-08 09:09     11 50 45.558404 +04 59 24.05026
 2019-Jan-08 09:10     11 50 45.563263 +04 59 24.06962
 2019-Jan-08 09:11     11 50 45.568119 +04 59 24.08898
 2019-Jan-08 09:12     11 50 45.572970 +04 59 24.10834
 2019-Jan-08 09:13     11 50 45.577818 +04 59 24.12771
 2019-Jan-08 09:14     11 50 45.582662 +04 59 24.14708
 2019-Jan-08 09:15     11 50 45.587502 +04 59 24.16646
 2019-Jan-08 09:16     11 50 45.592337 +04 59 24.18584
 2019-Jan-08 09:17     11 50 45.597169 +04 59 24.20522
 2019-Jan-08 09:18     11 50 45.601997 +04 59 24.22460
 2019-Jan-08 09:19     11 50 45.606821 +04 59 24.24399
 2019-Jan-08 09:20     11 50 45.611641 +04 59 24.26338
 2019-Jan-08 09:21     11 50 45.616458 +04 59 24.28277
 2019-Jan-08 09:22     11 50 45.621270 +04 59 24.30217
 2019-Jan-08 09:23     11 50 45.626078 +04 59 24.32157
 2019-Jan-08 09:24     11 50 45.630883 +04 59 24.34097
 2019-Jan-08 09:25     11 50 45.635683 +04 59 24.36038
 2019-Jan-08 09:26     11 50 45.640480 +04 59 24.37979
 2019-Jan-08 09:27     11 50 45.645272 +04 59 24.39920
 2019-Jan-08 09:28     11 50 45.650061 +04 59 24.41861
 2019-Jan-08 09:29     11 50 45.654846 +04 59 24.43803
 2019-Jan-08 09:30     11 50 45.659627 +04 59 24.45745
 2019-Jan-08 09:31     11 50 45.664404 +04 59 24.47688
 2019-Jan-08 09:32     11 50 45.669177 +04 59 24.49630
 2019-Jan-08 09:33     11 50 45.673946 +04 59 24.51573
 2019-Jan-08 09:34     11 50 45.678711 +04 59 24.53517
 2019-Jan-08 09:35     11 50 45.683473 +04 59 24.55460
 2019-Jan-08 09:36     11 50 45.688230 +04 59 24.57404
 2019-Jan-08 09:37     11 50 45.692984 +04 59 24.59348
 2019-Jan-08 09:38     11 50 45.697733 +04 59 24.61293
 2019-Jan-08 09:39     11 50 45.702479 +04 59 24.63237
 2019-Jan-08 09:40     11 50 45.707221 +04 59 24.65182
 2019-Jan-08 09:41     11 50 45.711959 +04 59 24.67128
 2019-Jan-08 09:42     11 50 45.716693 +04 59 24.69073
 2019-Jan-08 09:43     11 50 45.721423 +04 59 24.71019
 2019-Jan-08 09:44     11 50 45.726149 +04 59 24.72965
 2019-Jan-08 09:45     11 50 45.730872 +04 59 24.74911
 2019-Jan-08 09:46     11 50 45.735590 +04 59 24.76858
 2019-Jan-08 09:47     11 50 45.740305 +04 59 24.78805
 2019-Jan-08 09:48     11 50 45.745015 +04 59 24.80752
 2019-Jan-08 09:49     11 50 45.749722 +04 59 24.82699
 2019-Jan-08 09:50     11 50 45.754425 +04 59 24.84647
 2019-Jan-08 09:51     11 50 45.759124 +04 59 24.86595
 2019-Jan-08 09:52     11 50 45.763820 +04 59 24.88543
 2019-Jan-08 09:53     11 50 45.768511 +04 59 24.90492
 2019-Jan-08 09:54     11 50 45.773199 +04 59 24.92440
 2019-Jan-08 09:55     11 50 45.777882 +04 59 24.94389
 2019-Jan-08 09:56     11 50 45.782562 +04 59 24.96338
 2019-Jan-08 09:57     11 50 45.787238 +04 59 24.98288
 2019-Jan-08 09:58     11 50 45.791910 +04 59 25.00237
 2019-Jan-08 09:59     11 50 45.796579 +04 59 25.02187
 2019-Jan-08 10:00     11 50 45.801243 +04 59 25.04138
 2019-Jan-08 10:01     11 50 45.805904 +04 59 25.06088
 2019-Jan-08 10:02     11 50 45.810560 +04 59 25.08039
 2019-Jan-08 10:03     11 50 45.815213 +04 59 25.09989
 2019-Jan-08 10:04     11 50 45.819863 +04 59 25.11941
 2019-Jan-08 10:05     11 50 45.824508 +04 59 25.13892
 2019-Jan-08 10:06     11 50 45.829149 +04 59 25.15844
 2019-Jan-08 10:07     11 50 45.833787 +04 59 25.17795
 2019-Jan-08 10:08     11 50 45.838421 +04 59 25.19747
 2019-Jan-08 10:09     11 50 45.843051 +04 59 25.21700
 2019-Jan-08 10:10     11 50 45.847677 +04 59 25.23652
 2019-Jan-08 10:11     11 50 45.852300 +04 59 25.25605
 2019-Jan-08 10:12     11 50 45.856919 +04 59 25.27558
 2019-Jan-08 10:13     11 50 45.861533 +04 59 25.29511
 2019-Jan-08 10:14     11 50 45.866145 +04 59 25.31464
 2019-Jan-08 10:15     11 50 45.870752 +04 59 25.33418
 2019-Jan-08 10:16     11 50 45.875356 +04 59 25.35372
